; Generated by PrusaSlicer 2.5.0 on 2026-04-11
; 20mm cube, 0.3mm layer height, PLA
; Filament used: 2.4m
; Nozzle: 0.4mm, Bed: 60°C, Nozzle: 200°C

; ===== Start Sequence =====
M104 S200 ; Set nozzle temperature
M140 S60 ; Set bed temperature
M109 S200 ; Wait for nozzle temperature
M190 S60 ; Wait for bed temperature
M106 S255 ; Turn on fan at full speed
G28 ; Home all axes
G92 E0 ; Reset extruder position
G1 Z5 F3000 ; Move to Z=5mm to avoid bed

; ===== Layer 1 (Z=0.3mm) =====
G0 X10 Y10 F6000 ; Travel to starting point
G1 Z0.3 F3000 ; Move to layer height
G1 X30 Y10 E10 F1800 ; Extrude line from (10,10) to (30,10)
G1 X30 Y30 E20 F1800 ; Extrude line from (30,10) to (30,30)
G1 X10 Y30 E30 F1800 ; Extrude line from (30,30) to (10,30)
G1 X10 Y10 E40 F1800 ; Extrude line from (10,30) to (10,10)

; Inner perimeter
G0 X12 Y12 F6000 ; Travel to inner start
G1 X28 Y12 E45 F1500 ; Inner line
G1 X28 Y28 E50 F1500 ; Inner line
G1 X12 Y28 E55 F1500 ; Inner line
G1 X12 Y12 E60 F1500 ; Inner line

; ===== Layer 2 (Z=0.6mm) =====
G0 X10 Y10 Z0.6 F6000 ; Travel to layer 2 start
G1 X30 Y10 E70 F1800 ; Outer perimeter line 1
G1 X30 Y30 E80 F1800 ; Outer perimeter line 2
G1 X10 Y30 E90 F1800 ; Outer perimeter line 3
G1 X10 Y10 E100 F1800 ; Outer perimeter line 4

; Inner perimeter
G0 X12 Y12 Z0.6 F6000 ; Travel to inner start
G1 X28 Y12 E105 F1500 ; Inner line
G1 X28 Y28 E110 F1500 ; Inner line
G1 X12 Y28 E115 F1500 ; Inner line
G1 X12 Y12 E120 F1500 ; Inner line

; ===== Layer 3 (Z=0.9mm) =====
G0 X10 Y10 Z0.9 F6000 ; Travel to layer 3 start
G1 X30 Y10 E130 F1800 ; Outer perimeter line 1
G1 X30 Y30 E140 F1800 ; Outer perimeter line 2
G1 X10 Y30 E150 F1800 ; Outer perimeter line 3
G1 X10 Y10 E160 F1800 ; Outer perimeter line 4

G0 X12 Y12 Z0.9 F6000 ; Travel to inner start
G1 X28 Y12 E165 F1500 ; Inner line
G1 X28 Y28 E170 F1500 ; Inner line
G1 X12 Y28 E175 F1500 ; Inner line
G1 X12 Y12 E180 F1500 ; Inner line

; ===== End Sequence =====
G0 Z30 F3000 ; Move nozzle away
M104 S0 ; Turn off nozzle heater
M140 S0 ; Turn off bed heater
M106 S0 ; Turn off fan
G28 ; Home all axes
M84 ; Disable motors
